[{"OBJECT_NAME":"STARLINK-32479","OBJECT_ID":"2024-224K","EPOCH":"2026-03-09T06:05:46.346496","MEAN_MOTION":15.27590966,"ECCENTRICITY":3.722e-5,"INCLINATION":42.9968,"RA_OF_ASC_NODE":160.5456,"ARG_OF_PERICENTER":280.0789,"MEAN_ANOMALY":80.002,"EPHEMERIS_TYPE":0,"CLASSIFICATION_TYPE":"U","NORAD_CAT_ID":62148,"ELEMENT_SET_NO":999,"REV_AT_EPOCH":7235,"BSTAR":0.0014321868,"MEAN_MOTION_DOT":0.00039372,"MEAN_MOTION_DDOT":0},{"OBJECT_NAME":"HAWK-11C","OBJECT_ID":"2024-247E","EPOCH":"2026-03-09T12:17:35.407968","MEAN_MOTION":15.2884802,"ECCENTRICITY":0.00059001,"INCLINATION":45.0045,"RA_OF_ASC_NODE":114.8762,"ARG_OF_PERICENTER":329.704,"MEAN_ANOMALY":30.3502,"EPHEMERIS_TYPE":0,"CLASSIFICATION_TYPE":"U","NORAD_CAT_ID":62381,"ELEMENT_SET_NO":999,"REV_AT_EPOCH":6774,"BSTAR":0.00033290115,"MEAN_MOTION_DOT":9.223e-5,"MEAN_MOTION_DDOT":0}]
